09164   13.0   0.15 K205V 255.02150   63.86570  325.01393    3.68569  0.1511328  0.17311367   3.1884662  0 MPO473891  1523  22 1953-2019 0.46 M-v 38h MPCLINUX   0000   (9164) Colbert            20190607
09165   13.7   0.15 K205V 256.86055  332.12591   14.99261   24.59679  0.0974988  0.35216062   1.9859830  0 MPO526030  1657  20 1955-2020 0.39 M-v 38h Williams   0006   (9165) Raup               20200107
09166   12.7   0.15 K205V 316.03374  148.23703  162.77805    1.17214  0.1738689  0.17449347   3.1716355  0 MPO526030  2083  24 1987-2020 0.45 M-v 38h Williams   0000   (9166) 1987 SC6           20200107
09167   12.8   0.15 K205V 348.67436  324.46913  359.70707    6.94750  0.1662945  0.17652050   3.1473082  0 MPO526030  2317  22 1981-2019 0.51 M-v 38h Williams   0000   (9167) Kharkiv            20190729
09168   13.7   0.15 K205V 229.29934  143.40841  224.82772    8.80151  0.1556278  0.26027038   2.4295148  0 MPO526030  1892  22 1983-2020 0.44 M-v 38h Williams   0000   (9168) Sarov              20200107
09169   14.4   0.15 K205V  56.82196  176.50913  214.34149    4.87199  0.1392918  0.28596274   2.2817238  0 MPO526030  1710  18 1988-2020 0.45 M-v 38h Williams   0000   (9169) 1988 TL1           20200107
09170   14.7   0.15 K205V 140.99709  165.65007  214.56548    3.11096  0.1564960  0.29281836   2.2459694  0 MPO526030  1679  20 1978-2020 0.46 M-v 38h Williams   0000   (9170) 1988 TG5           20200107
09171   12.8   0.15 K205V  89.34143  271.38918   34.30142   14.84224  0.1276486  0.23695517   2.5863775  0 MPO526030  2123  20 1986-2020 0.37 M-v 38h Williams   0000   (9171) Carolyndiane       20200107
09172   16.4   0.15 K205V 324.94143   74.00980  287.66521    7.84532  0.5529633  0.22111312   2.7084846  0 MPO400091   252   9 1989-2017 0.68 M-v 38h MPCLINUX   1804   (9172) Abhramu            20170225
09173   12.6   0.15 K205V 310.64554  257.97239  353.45977    8.58325  0.1153172  0.21120803   2.7925166  0 MPO526030  1858  23 1975-2020 0.42 M-v 38h Williams   0000   (9173) 1989 TZ15          20200107
09174   14.2   0.15 K205V 148.96639  192.20854  240.79305    2.76554  0.0707301  0.30466190   2.1873785  0 MPO526030  1587  22 1953-2020 0.43 M-v 38h Williams   0000   (9174) 1989 WC3           20200107
09175   12.3   0.15 K205V  34.83904  353.00423  329.95258   15.06992  0.1400521  0.23505421   2.6003034  0 MPO526030  2277  24 1975-2019 0.55 M-v 38h Williams   0000   (9175) Graun              20191029
09176   13.5   0.15 K205V 223.09678  228.52916  176.87265    3.70479  0.0841321  0.22017350   2.7161850  0 MPO473891  1690  23 1981-2019 0.45 M-v 38h MPCLINUX   0000   (9176) Struchkova         20190703
09177   13.7   0.15 K205V  78.52279  129.31735  261.69647    4.42609  0.2786081  0.24059947   2.5601944  0 MPO526031  1587  22 1953-2020 0.47 M-v 38h Williams   0000   (9177) Donsaari           20200105
09178   13.8   0.15 K205V  94.60886   17.38179   31.33786    2.26120  0.0812654  0.20177624   2.8788743  0 MPO526031  1590  20 1989-2020 0.46 M-v 38h Williams   0000   (9178) Momoyo             20200106
09179   13.1   0.15 K205V  71.00401  194.18615  165.30332   11.07496  0.1156367  0.19129756   2.9830676  0 MPO526031  1824  23 1950-2020 0.43 M-v 38h Williams   0000   (9179) Satchmo            20200102
09180   12.6   0.15 K205V  75.66861  312.94130  218.94261   15.70567  0.0541365  0.17342364   3.1846657  0 MPO526031  1581  25 1988-2020 0.41 M-v 38h Williams   0000   (9180) Samsagan           20200105
09181   13.8   0.15 K205V  64.27651  350.55342  317.40826    6.85163  0.1492289  0.27943315   2.3171319  0 MPO526031  1705  20 1977-2019 0.49 M-v 38h Williams   0000   (9181) 1991 NP2           20191031
09182   13.6   0.15 K205V 357.93169  157.99257  271.04466    3.72787  0.0891961  0.28521701   2.2856994  0 MPO526031  2081  19 1991-2020 0.42 M-v 38h Williams   0000   (9182) 1991 NB4           20200107
09183   14.7   0.15 K205V 149.39780  336.79779  282.18112    5.88311  0.1982054  0.28373625   2.2936448  0 MPO526031  1463  20 1950-2019 0.43 M-v 38h Williams   0000   (9183) 1991 OW            20191221
09184   14.2   0.15 K205V 291.23266  108.42015  349.38969    4.79717  0.0971096  0.28039131   2.3118502  0 MPO492858  1263  23 1981-2019 0.43 M-v 38h Williams   0000   (9184) Vasilij            20190930
09185   13.6   0.15 K205V  89.97886  278.12785    0.13680    6.66325  0.1116882  0.27806149   2.3247459  0 MPO526031  1781  19 1962-2019 0.52 M-v 38h Williams   0000   (9185) 1991 PX17          20191220
09186   14.2   0.15 K205V 131.39012   75.06735  184.44045   23.10128  0.1925401  0.28113723   2.3077591  0 MPO526031  1603  19 1991-2020 0.43 M-v 38h Williams   0007   (9186) Fumikotsukimoto    20200104
09187   14.7   0.15 K205V 334.71574   64.29968  213.89769    4.36258  0.2039565  0.26612571   2.3937465  0 MPO526031  1361  21 1990-2020 0.44 M-v 38h Williams   0000   (9187) Walterkroll        20200102
09188   14.5   0.15 K205V 308.41052    4.63055  309.04008    2.08812  0.2219516  0.26712622   2.3877657  0 MPO467759  1693  19 1980-2019 0.42 M-v 38h MPCLINUX   0000   (9188) 1991 RM15          20190428
09189   14.2   0.15 K205V 208.98158  279.07609  133.70431    2.74724  0.0786344  0.26448998   2.4036057  0 MPO473891  1976  20 1978-2019 0.42 M-v 38h MPCLINUX   0000   (9189) Holderlin          20190601
09190   13.5   0.15 K205V 152.87719  100.63133  316.15757    5.62160  0.2198532  0.25684395   2.4510744  0 MPO526031  1752  19 1983-2020 0.43 M-v 38h Williams   0000   (9190) Masako             20200107
09191   12.5   0.15 K205V 215.41189  253.93228  288.00877   11.93256  0.1124322  0.23511460   2.5998581  0 MPO526031  1806  20 1991-2020 0.40 M-v 38h Williams   0000   (9191) Hokuto             20200109
09192   13.2   0.15 K205V 136.61716  236.52885  289.40966    6.56783  0.1876131  0.22459680   2.6804045  0 MPO526031  1816  21 1986-2019 0.46 M-v 38h Williams   0000   (9192) 1992 AR1           20190818
09193   12.9   0.15 K205V 337.74404  190.32220  241.15762   13.44008  0.1457911  0.23433872   2.6055936  0 MPO526031  1988  20 1992-2020 0.39 M-v 38h Williams   0000   (9193) Geoffreycopland    20200108
09194   14.8   0.15 K205V 228.38740  289.41136  128.56530    8.58363  0.0870381  0.27938967   2.3173723  0 MPO473891  1469  20 1987-2019 0.43 M-v 38h MPCLINUX   0000   (9194) Ananoff            20190626
09195   12.9   0.15 K205V 324.52876  171.48564  104.31469    2.63725  0.1591485  0.17193954   3.2029651  0 MPO526031  1741  23 1984-2020 0.46 M-v 38h Williams   0000   (9195) 1992 OF9           20200107
09196   13.7   0.15 K205V 303.96672  145.80891  104.37035    3.43627  0.0694336  0.29959585   2.2119681  0 MPO526031  2072  21 1988-2020 0.41 M-v 38h Williams   0000   (9196) Sukagawa           20200111
09197   14.8   0.15 K205V 303.63670  329.19645    2.18316    1.00025  0.1106625  0.30970411   2.1635723  0 MPO526031  1883  23 1956-2020 0.46 M-v 38h Williams   0000   (9197) Endo               20200105
09198   14.3   0.15 K205V  39.75393  305.74507  172.35878    1.19730  0.0894789  0.29066878   2.2570289  0 MPO526031  2023  21 1978-2020 0.42 M-v 38h Williams   0000   (9198) Sasagamine         20200107
09199   13.1   0.15 K205V 294.85919  308.33483   49.26329    7.87879  0.1331431  0.26478249   2.4018352  0 MPO473891  2103  21 1986-2019 0.42 M-v 38h MPCLINUX   0000   (9199) 1993 FO1           20190801
09200   13.5   0.15 K205V 246.52381  154.65738  193.78456    2.01748  0.2025799  0.25715922   2.4490706  0 MPO526031  2321  21 1975-2020 0.41 M-v 38h Williams   0000   (9200) 1993 FK21          20200104
09201   12.9   0.15 K205V 244.22960  181.90092   71.32772    0.78128  0.1033490  0.17464063   3.1698535  0 MPO526031  2320  25 1977-2020 0.41 M-v 38h Williams   0000   (9201) 1993 FU39          20200106
09202   15.9   0.15 K205V  16.86249  212.31865  315.92234   40.81853  0.6074427  0.58010196   1.4238574  1 MPO505515   532  17 1993-2019 0.46 M-v 3Eh Williams   1803   (9202) 1993 PB            20191109
09203   12.5   0.15 K205V  17.55645  163.95488   84.94069    2.57413  0.1090840  0.17482011   3.1676836  0 MPO473891  2130  25 1949-2019 0.43 M-v 38h MPCLINUX   0000   (9203) Myrtus             20190713
09204   13.7   0.15 K205V 285.95724  214.67586  260.72761    6.12255  0.0635071  0.27686452   2.3314415  0 MPO526031  1964  19 1991-2019 0.42 M-v 38h Williams   0000   (9204) Morike             20191221
09205   13.2   0.15 K205V  34.54039   39.02180  113.18284    0.59554  0.1239648  0.17524074   3.1626126  0 MPO526031  1788  26 1975-2020 0.45 M-v 38h Williams   0000   (9205) Eddywally          20200107
09206   14.2   0.15 K205V 178.63654  343.17181   37.42791    1.81504  0.2177899  0.25133241   2.4867782  0 MPO526031  1424  23 1989-2020 0.48 M-v 38h Williams   0000   (9206) Yanaikeizo         20200107
09207   14.4   0.15 K205V 271.82904  236.38992   86.75169    1.29709  0.0823817  0.21699371   2.7426557  0 MPO467759  1221  22 1990-2019 0.49 M-v 38h MPCLINUX   0000   (9207) Petersmith         20190404
09208   13.0   0.15 K205V 206.75155  206.22082  208.46162   10.42329  0.1007714  0.21697763   2.7427912  0 MPO473891  1814  21 1988-2019 0.41 M-v 38h MPCLINUX   0000   (9208) Takanotoshi        20190623
09209   13.3   0.15 K205V 282.27892  296.06810    8.39306    5.50632  0.2881623  0.21633464   2.7482232  0 MPO526031  1860  22 1985-2020 0.44 M-v 38h Williams   0000   (9209) 1994 UK1           20200107
09210   13.5   0.15 K205V 272.88929   86.19697  348.30347    7.06434  0.2230353  0.18233416   3.0800471  0 MPO452300  1219  20 1977-2018 0.44 M-v 38h MPCLINUX   0000   (9210) 1995 BW2           20180617
09211   15.0   0.15 K205V 183.78386  266.90301   14.51117    2.40134  0.1501235  0.29149980   2.2527373  0 MPO526031  1562  19 1977-2019 0.44 M-v 38h Williams   0000   (9211) Neese              20191229
09212   14.3   0.15 K205V 320.01936  192.29854  226.32372    5.72136  0.0963062  0.27814161   2.3242994  0 MPO492858  1371  19 1988-2019 0.47 M-v 38h Williams   0000   (9212) Kanamaru           20190919
